NORAD_CAT_ID,OBJECT_NAME,OBJECT_TYPE,EPOCH,MEAN_MOTION,ECCENTRICITY,INCLINATION,RA_OF_ASC_NODE,ARG_OF_PERICENTER,MEAN_ANOMALY,BSTAR,MEAN_MOTION_DOT,MEAN_MOTION_DDOT,TLE_LINE0,TLE_LINE1,TLE_LINE2,SEMIMAJOR_AXIS,PERIOD,APOGEE,PERIGEE,DECAYED
53712.0,STARLINK-4683,PAYLOAD,2022-10-26 14:00:01,15.73189525,0.0002683999999999,53.2155,18.3099,14.4632,215.5127,0.00047067,0.00065933,0.0,0 STARLINK-4683,1 53712U 22107N   22299.58334491  .00065933  00000-0  47067-3 0  9994,2 53712  53.2155  18.3099 0002684  14.4632 215.5127 15.73189525  8222,6727.925,91.534,351.596,347.9840000000001,0.0
53712.0,STARLINK-4683,PAYLOAD,2022-10-26 22:00:00,15.73266469,0.0002544,53.215,16.659000000000002,16.2396,302.6766,-0.0007085,-0.00099191,0.0,0 STARLINK-4683,1 53712U 22107N   22299.91667824 -.00099191  00000-0 -70850-3 0  9991,2 53712  53.2150  16.6590 0002544  16.2396 302.6766 15.73266469  1308,6727.706,91.529,351.282,347.8590000000001,0.0
53712.0,STARLINK-4683,PAYLOAD,2022-10-27 08:00:01,15.73250718,0.0002544,53.2152,14.597,18.8746,141.2497,-0.00043968,-0.0006202,0.0,0 STARLINK-4683,1 53712U 22107N   22300.33334491 -.00062020  00000-0 -43968-3 0  9992,2 53712  53.2152  14.5970 0002544  18.8746 141.2497 15.73250718  8345,6727.751,91.53,351.327,347.904,0.0
53712.0,STARLINK-4683,PAYLOAD,2022-10-27 14:00:01,15.73180373,0.0002762,53.2152,13.3612,15.5103,121.4167,0.00068465,0.00096506,0.0,0 STARLINK-4683,1 53712U 22107N   22300.58335648  .00096506  00000-0  68465-3 0  9997,2 53712  53.2152  13.3612 0002762  15.5103 121.4167 15.73180373  1300,6727.951,91.534,351.6740000000001,347.958,0.0
53712.0,STARLINK-4683,PAYLOAD,2022-10-27 22:00:00,15.73271769,0.000267,53.2153,11.7101,14.3056,211.4984,-0.00054118,-0.00076138,0.0,0 STARLINK-4683,1 53712U 22107N   22300.91667824 -.00076138  00000-0 -54118-3 0  9999,2 53712  53.2153  11.7101 0002670  14.3056 211.4984 15.73271769  1305,6727.691,91.529,351.352,347.759,0.0
53712.0,STARLINK-4683,PAYLOAD,2022-10-28 00:00:02,15.73233722,0.0002607,53.2153,11.2972,14.5167,323.6128,-0.00012231,-0.00017779,0.0,0 STARLINK-4683,1 53712U 22107N   22301.00002315 -.00017779  00000-0 -12231-3 0  9994,2 53712  53.2153  11.2972 0002607  14.5167 323.6128 15.73233722  8457,6727.799,91.531,351.418,347.91,0.0
53712.0,STARLINK-4683,PAYLOAD,2022-10-28 14:00:01,15.73138234,0.0002927,53.215,8.4122,15.4675,28.3476,0.00057052,0.00080013,0.0,0 STARLINK-4683,1 53712U 22107N   22301.58335648  .00080013  00000-0  57052-3 0  9994,2 53712  53.2150   8.4122 0002927  15.4675  28.3476 15.73138234  1302,6728.071,91.537,351.906,347.967,0.0
53712.0,STARLINK-4683,PAYLOAD,2022-10-28 22:00:01,15.73231642,0.0002777,53.2146,6.761,14.057,118.6459,-0.00041228,-0.00058175,0.0,0 STARLINK-4683,1 53712U 22107N   22301.91668981 -.00058175  00000-0 -41228-3 0  9994,2 53712  53.2146   6.7610 0002777  14.0570 118.6459 15.73231642  1303,6727.805,91.531,351.538,347.802,0.0
53712.0,STARLINK-4683,PAYLOAD,2022-10-29 08:00:01,15.73188176,0.0002846,53.2147,4.6994,17.3676,316.4622,4.6876e-05,5.959e-05,0.0,0 STARLINK-4683,1 53712U 22107N   22302.33334491  .00005959  00000-0  46876-4 0  9992,2 53712  53.2147   4.6994 0002846  17.3676 316.4622 15.73188176  8654,6727.929,91.534,351.709,347.879,0.0
53712.0,STARLINK-4683,PAYLOAD,2022-10-29 12:00:00,15.73170928,0.0003054,53.2147,3.8756,17.8652,180.4276,0.00068324,0.00096268,0.0,0 STARLINK-4683,1 53712U 22107N   22302.50001157  .00096268  00000-0  68324-3 0  9995,2 53712  53.2147   3.8756 0003054  17.8652 180.4276 15.73170928  1307,6727.978,91.535,351.898,347.788,0.0
53712.0,STARLINK-4683,PAYLOAD,2022-10-29 22:00:01,15.7322277,0.0002881999999999,53.216,1.8121,12.7825,26.7085,-0.00037,-0.00052291,0.0,0 STARLINK-4683,1 53712U 22107N   22302.91668981 -.00052291  00000-0 -37000-3 0  9991,2 53712  53.2160   1.8121 0002882  12.7825  26.7085 15.73222770  1303,6727.83,91.532,351.634,347.756,0.0
53712.0,STARLINK-4683,PAYLOAD,2022-10-30 14:00:01,15.73180678,0.0003176,53.2148,358.5145,9.9693,207.3402,4.4835e-06,6e-08,0.0,0 STARLINK-4683,1 53712U 22107N   22303.58334491  .00000006  00000-0  44835-5 0  9992,2 53712  53.2148 358.5145 0003176   9.9693 207.3402 15.73180678  1305,6727.95,91.534,351.952,347.67800000000005,0.0
53712.0,STARLINK-4683,PAYLOAD,2022-10-30 22:00:01,15.73151358,0.0003013,53.2145,356.86300000000006,14.9613,291.324,0.00045577,0.00063707,0.0,0 STARLINK-4683,1 53712U 22107N   22303.91668981  .00063707  00000-0  45577-3 0  9992,2 53712  53.2145 356.8630 0003013  14.9613 291.3240 15.73151358  1306,6728.034000000002,91.536,351.926,347.872,0.0
53712.0,STARLINK-4683,PAYLOAD,2022-10-31 14:00:01,15.73065107,0.0002993999999999,53.2172,353.5717,307.9272,176.0195,-0.0082482,-0.01038225,0.0,0 STARLINK-4683,1 53712U 22107N   22304.58334491 -.01038225  00000-0 -82482-2 0  9997,2 53712  53.2172 353.5717 0002994 307.9272 176.0195 15.73065107  1303,6728.28,91.541,352.159,348.13,0.0
53712.0,STARLINK-4683,PAYLOAD,2022-10-31 22:00:01,15.72312451,0.0005143,53.2177,351.9252,278.8159,293.5084,-0.010029,-0.01223425,0.0,0 STARLINK-4683,1 53712U 22107N   22304.91668981 -.01223425  00000-0 -10029-1 0  9993,2 53712  53.2177 351.9252 0005143 278.8159 293.5084 15.72312451  9062,6730.427,91.585,355.75300000000016,348.83,0.0
53712.0,STARLINK-4683,PAYLOAD,2022-11-01 14:00:01,15.70599147,0.0005252,53.2173,348.6433,271.1812,114.659,-0.011048,-0.01250078,0.0,0 STARLINK-4683,1 53712U 22107N   22305.58334491 -.01250078  00000-0 -11048-1 0  9999,2 53712  53.2173 348.6433 0005252 271.1812 114.6590 15.70599147  1306,6735.321,91.685,360.723,353.648,0.0
53712.0,STARLINK-4683,PAYLOAD,2022-11-01 22:00:00,15.69714218,0.0002612,53.2175,347.0045,291.4469,179.6359,-0.011299,-0.01231978,0.0,0 STARLINK-4683,1 53712U 22107N   22305.91667824 -.01231978  00000-0 -11299-1 0  9991,2 53712  53.2175 347.0045 0002612 291.4469 179.6359 15.69714218  9229,6737.852,91.736,361.477,357.957,0.0
53712.0,STARLINK-4683,PAYLOAD,2022-11-02 14:00:01,15.67963429,0.0001646,53.2174,343.7367,31.597,246.8246,-0.011863,-0.01205128,0.0,0 STARLINK-4683,1 53712U 22107N   22306.58334491 -.01205128  00000-0 -11863-1 0  9991,2 53712  53.2174 343.7367 0001646  31.5970 246.8246 15.67963429  1305,6742.866,91.839,365.841,363.622,0.0
53712.0,STARLINK-4683,PAYLOAD,2022-11-02 22:00:00,15.67095164,9.44e-05,53.2175,342.1029,82.9941,277.5329,-0.012296,-0.01205052,0.0,0 STARLINK-4683,1 53712U 22107N   22306.91667824 -.01205052  00000-0 -12296-1 0  9994,2 53712  53.2175 342.1029 0000944  82.9941 277.5329 15.67095164  9383,6745.357,91.89,367.859,366.585,0.0
53712.0,STARLINK-4683,PAYLOAD,2022-11-03 14:00:01,15.65363418,0.000119,53.2174,338.8465,67.8651,93.7356,-0.013246,-0.01209597,0.0,0 STARLINK-4683,1 53712U 22107N   22307.58334491 -.01209597  00000-0 -13246-1 0  9993,2 53712  53.2174 338.8465 0001190  67.8651  93.7356 15.65363418  9489,6750.331,91.991,372.999,371.392,0.0
53712.0,STARLINK-4683,PAYLOAD,2022-11-03 22:00:00,15.64490926,0.0001149,53.2176,337.2201,79.509,161.0682,-0.013635,-0.01202957,0.0,0 STARLINK-4683,1 53712U 22107N   22307.91667824 -.01202957  00000-0 -13635-1 0  9994,2 53712  53.2176 337.2201 0001149  79.5090 161.0682 15.64490926  1301,6752.84,92.043,375.481,373.929,0.0
53712.0,STARLINK-4683,PAYLOAD,2022-11-04 06:00:00,15.63625057,0.0001053,53.2177,335.5972,77.6447,240.8622,-0.014155,-0.01206074,0.0,0 STARLINK-4683,1 53712U 22107N   22308.25001157 -.01206074  00000-0 -14155-1 0  9995,2 53712  53.2177 335.5972 0001053  77.6447 240.8622 15.63625057  9589,6755.333000000001,92.094,377.909,376.487,0.0
53712.0,STARLINK-4683,PAYLOAD,2022-11-04 14:00:01,15.62756595,0.0001058,53.2171,333.9749,62.4642,332.9311,-0.0146259999999999,-0.01204296,0.0,0 STARLINK-4683,1 53712U 22107N   22308.58334491 -.01204296  00000-0 -14626-1 0  9998,2 53712  53.2171 333.9749 0001058  62.4642 332.9311 15.62756595  1302,6757.835,92.145,380.415,378.985,0.0
53712.0,STARLINK-4683,PAYLOAD,2022-11-04 22:00:01,15.61888471,0.0001121,53.2172,332.3498,70.9607,40.3486,-0.01514,-0.0120478,0.0,0 STARLINK-4683,1 53712U 22107N   22308.91668981 -.01204780  00000-0 -15140-1 0  9999,2 53712  53.2172 332.3498 0001121  70.9607  40.3486 15.61888471  9694,6760.339,92.196,382.962,381.446,0.0
53712.0,STARLINK-4683,PAYLOAD,2022-11-05 14:00:01,15.60173364,0.0001084,53.2166,329.1118,80.0813,179.7814,-0.016578,-0.01231067,0.0,0 STARLINK-4683,1 53712U 22107N   22309.58335648 -.01231067  00000-0 -16578-1 0  9998,2 53712  53.2166 329.1118 0001084  80.0813 179.7814 15.60173364  9799,6765.293000000002,92.297,387.891,386.425,0.0
53712.0,STARLINK-4683,PAYLOAD,2022-11-05 22:00:01,15.59281896,9.97e-05,53.2174,327.4937,83.6815,248.9121,-0.016671,-0.01199702,0.0,0 STARLINK-4683,1 53712U 22107N   22309.91668981 -.01199702  00000-0 -16671-1 0  9997,2 53712  53.2174 327.4937 0000997  83.6815 248.9121 15.59281896  1308,6767.871,92.35,390.411,389.061,0.0
53712.0,STARLINK-4683,PAYLOAD,2022-11-06 14:00:01,15.57563137,0.0001240999999999,53.2166,324.2675,68.9144,45.9111,-0.018153,-0.01221229,0.0,0 STARLINK-4683,1 53712U 22107N   22310.58334491 -.01221229  00000-0 -18153-1 0  9995,2 53712  53.2166 324.2675 0001241  68.9144  45.9111 15.57563137  1300,6772.849,92.452,395.555,393.874,0.0
53712.0,STARLINK-4683,PAYLOAD,2022-11-07 14:00:01,15.54980251,0.0001101,53.2163,319.4424,73.4522,247.0003,-0.020487,-0.012681,0.0,0 STARLINK-4683,1 53712U 22107N   22311.58334491 -.01268100  00000-0 -20487-1 0  9998,2 53712  53.2163 319.4424 0001101  73.4522 247.0003 15.54980251 10112,6780.347,92.606,402.959,401.466,0.0
53712.0,STARLINK-4683,PAYLOAD,2022-11-07 22:00:00,15.54073925,0.0001032,53.2172,317.8371,72.954,313.9781,-0.020245,-0.01216811,0.0,0 STARLINK-4683,1 53712U 22107N   22311.91667824 -.01216811  00000-0 -20245-1 0  9998,2 53712  53.2172 317.8371 0001032  72.9540 313.9781 15.54073925  1300,6782.983,92.66,405.548,404.148,0.0
